[{"OBJECT_NAME":"NOAA 18","OBJECT_ID":"2005-018A","EPOCH":"2026-03-23T04:50:03.037056","MEAN_MOTION":14.13713457,"ECCENTRICITY":0.00148424,"INCLINATION":98.8138,"RA_OF_ASC_NODE":163.1183,"ARG_OF_PERICENTER":39.2079,"MEAN_ANOMALY":321.0166,"EPHEMERIS_TYPE":0,"CLASSIFICATION_TYPE":"U","NORAD_CAT_ID":28654,"ELEMENT_SET_NO":999,"REV_AT_EPOCH":7416,"BSTAR":5.7513525e-5,"MEAN_MOTION_DOT":6.5e-7,"MEAN_MOTION_DDOT":0},{"OBJECT_NAME":"NOAA 19","OBJECT_ID":"2009-005A","EPOCH":"2026-03-23T06:08:20.901408","MEAN_MOTION":14.13459377,"ECCENTRICITY":0.00126858,"INCLINATION":98.9582,"RA_OF_ASC_NODE":153.0481,"ARG_OF_PERICENTER":273.3584,"MEAN_ANOMALY":86.6137,"EPHEMERIS_TYPE":0,"CLASSIFICATION_TYPE":"U","NORAD_CAT_ID":33591,"ELEMENT_SET_NO":999,"REV_AT_EPOCH":88234,"BSTAR":6.1045136e-5,"MEAN_MOTION_DOT":7.0e-7,"MEAN_MOTION_DDOT":0},{"OBJECT_NAME":"SUOMI NPP","OBJECT_ID":"2011-061A","EPOCH":"2026-03-23T04:56:35.927232","MEAN_MOTION":14.19496902,"ECCENTRICITY":0.00013672,"INCLINATION":98.7885,"RA_OF_ASC_NODE":23.7024,"ARG_OF_PERICENTER":173.304,"MEAN_ANOMALY":186.8155,"EPHEMERIS_TYPE":0,"CLASSIFICATION_TYPE":"U","NORAD_CAT_ID":37849,"ELEMENT_SET_NO":999,"REV_AT_EPOCH":74624,"BSTAR":7.0281358e-5,"MEAN_MOTION_DOT":1.04e-6,"MEAN_MOTION_DDOT":0},{"OBJECT_NAME":"NOAA 20 (JPSS-1)","OBJECT_ID":"2017-073A","EPOCH":"2026-03-23T05:17:36.685536","MEAN_MOTION":14.1953951,"ECCENTRICITY":0.00017288,"INCLINATION":98.7707,"RA_OF_ASC_NODE":22.4744,"ARG_OF_PERICENTER":119.5021,"MEAN_ANOMALY":240.6328,"EPHEMERIS_TYPE":0,"CLASSIFICATION_TYPE":"U","NORAD_CAT_ID":43013,"ELEMENT_SET_NO":999,"REV_AT_EPOCH":43227,"BSTAR":6.8779874e-5,"MEAN_MOTION_DOT":1.01e-6,"MEAN_MOTION_DDOT":0}]
