NOAA 18                 
1 28654U 05018A   26082.20142404  .00000065  00000+0  57514-4 0  9990
2 28654  98.8138 163.1183 0014842  39.2079 321.0166 14.13713457 74169
NOAA 19                 
1 33591U 09005A   26082.25579747  .00000070  00000+0  61045-4 0  9995
2 33591  98.9582 153.0481 0012685 273.3584  86.6137 14.13459377882340
SUOMI NPP               
1 37849U 11061A   26082.20597138  .00000104  00000+0  70281-4 0  9999
2 37849  98.7885  23.7024 0001367 173.3040 186.8155 14.19496902746243
NOAA 20 (JPSS-1)        
1 43013U 17073A   26082.22056349  .00000101  00000+0  68780-4 0  9992
2 43013  98.7707  22.4744 0001728 119.5021 240.6328 14.19539510432272
